ASTROCAST-0401          
1 55110U 23001DF  26068.71172895  .00009750  00000+0  37868-3 0  9995
2 55110  97.5547 160.5206 0008142 188.4231 171.6872 15.26258462176022
STARLINK-31737          
1 59537U 24074D   26068.09112546  .00001233  00000+0  54299-4 0  9997
2 59537  43.0045 346.8346 0001081 269.7064  90.3664 15.27589441105926
